[{"OBJECT_NAME":"ONEWEB-0363","OBJECT_ID":"2021-090L","EPOCH":"2025-08-27T05:28:44.199840","MEAN_MOTION":13.20773288,"ECCENTRICITY":0.00023274,"INCLINATION":87.9297,"RA_OF_ASC_NODE":333.0279,"ARG_OF_PERICENTER":100.7884,"MEAN_ANOMALY":259.3512,"EPHEMERIS_TYPE":0,"CLASSIFICATION_TYPE":"U","NORAD_CAT_ID":49289,"ELEMENT_SET_NO":999,"REV_AT_EPOCH":19150,"BSTAR":0.00038332018,"MEAN_MOTION_DOT":1.69e-6,"MEAN_MOTION_DDOT":0},{"OBJECT_NAME":"ONEWEB-0364","OBJECT_ID":"2021-090M","EPOCH":"2025-08-26T23:06:55.620000","MEAN_MOTION":13.20772447,"ECCENTRICITY":0.00020417,"INCLINATION":87.9288,"RA_OF_ASC_NODE":333.108,"ARG_OF_PERICENTER":98.782,"MEAN_ANOMALY":261.3544,"EPHEMERIS_TYPE":0,"CLASSIFICATION_TYPE":"U","NORAD_CAT_ID":49290,"ELEMENT_SET_NO":999,"REV_AT_EPOCH":19260,"BSTAR":0.00014648865,"MEAN_MOTION_DOT":7.3e-7,"MEAN_MOTION_DDOT":0},{"OBJECT_NAME":"ONEWEB-0365","OBJECT_ID":"2021-090N","EPOCH":"2025-08-27T02:14:25.753632","MEAN_MOTION":13.19726527,"ECCENTRICITY":0.00016972,"INCLINATION":87.9273,"RA_OF_ASC_NODE":3.4135,"ARG_OF_PERICENTER":95.2413,"MEAN_ANOMALY":264.8914,"EPHEMERIS_TYPE":0,"CLASSIFICATION_TYPE":"U","NORAD_CAT_ID":49291,"ELEMENT_SET_NO":999,"REV_AT_EPOCH":18763,"BSTAR":7.0239418e-5,"MEAN_MOTION_DOT":4.1e-7,"MEAN_MOTION_DDOT":0},{"OBJECT_NAME":"ONEWEB-0366","OBJECT_ID":"2021-090P","EPOCH":"2025-08-27T05:46:31.958688","MEAN_MOTION":13.14502322,"ECCENTRICITY":0.00019152,"INCLINATION":87.9093,"RA_OF_ASC_NODE":348.2308,"ARG_OF_PERICENTER":100.4889,"MEAN_ANOMALY":259.6457,"EPHEMERIS_TYPE":0,"CLASSIFICATION_TYPE":"U","NORAD_CAT_ID":49292,"ELEMENT_SET_NO":999,"REV_AT_EPOCH":18894,"BSTAR":9.0944254e-5,"MEAN_MOTION_DOT":4.6e-7,"MEAN_MOTION_DDOT":0},{"OBJECT_NAME":"ONEWEB-0367","OBJECT_ID":"2021-090Q","EPOCH":"2025-08-27T05:26:28.205376","MEAN_MOTION":13.20772479,"ECCENTRICITY":0.00016971,"INCLINATION":87.9298,"RA_OF_ASC_NODE":333.0236,"ARG_OF_PERICENTER":99.3994,"MEAN_ANOMALY":260.7331,"EPHEMERIS_TYPE":0,"CLASSIFICATION_TYPE":"U","NORAD_CAT_ID":49293,"ELEMENT_SET_NO":999,"REV_AT_EPOCH":19102,"BSTAR":0.00032993931,"MEAN_MOTION_DOT":1.47e-6,"MEAN_MOTION_DDOT":0},{"OBJECT_NAME":"ONEWEB-0368","OBJECT_ID":"2021-090R","EPOCH":"2025-08-27T04:47:48.229728","MEAN_MOTION":13.20771276,"ECCENTRICITY":0.00023798,"INCLINATION":87.9295,"RA_OF_ASC_NODE":333.065,"ARG_OF_PERICENTER":81.498,"MEAN_ANOMALY":278.6423,"EPHEMERIS_TYPE":0,"CLASSIFICATION_TYPE":"U","NORAD_CAT_ID":49294,"ELEMENT_SET_NO":999,"REV_AT_EPOCH":19217,"BSTAR":-0.00016257408,"MEAN_MOTION_DOT":-5.3e-7,"MEAN_MOTION_DDOT":0},{"OBJECT_NAME":"ONEWEB-0369","OBJECT_ID":"2021-090S","EPOCH":"2025-08-27T02:07:37.639776","MEAN_MOTION":13.19725657,"ECCENTRICITY":0.00017969,"INCLINATION":87.9277,"RA_OF_ASC_NODE":3.4457,"ARG_OF_PERICENTER":95.1791,"MEAN_ANOMALY":264.9547,"EPHEMERIS_TYPE":0,"CLASSIFICATION_TYPE":"U","NORAD_CAT_ID":49295,"ELEMENT_SET_NO":999,"REV_AT_EPOCH":18762,"BSTAR":0.00023807486,"MEAN_MOTION_DOT":1.08e-6,"MEAN_MOTION_DDOT":0},{"OBJECT_NAME":"ONEWEB-0370","OBJECT_ID":"2021-090T","EPOCH":"2025-08-27T05:40:05.829312","MEAN_MOTION":13.20772783,"ECCENTRICITY":0.00017027,"INCLINATION":87.93,"RA_OF_ASC_NODE":333.0292,"ARG_OF_PERICENTER":108.9843,"MEAN_ANOMALY":251.1475,"EPHEMERIS_TYPE":0,"CLASSIFICATION_TYPE":"U","NORAD_CAT_ID":49296,"ELEMENT_SET_NO":999,"REV_AT_EPOCH":19106,"BSTAR":0.00015388505,"MEAN_MOTION_DOT":7.6e-7,"MEAN_MOTION_DDOT":0},{"OBJECT_NAME":"ONEWEB-0371","OBJECT_ID":"2021-090U","EPOCH":"2025-08-27T02:18:58.273056","MEAN_MOTION":13.19725149,"ECCENTRICITY":0.00016879,"INCLINATION":87.9276,"RA_OF_ASC_NODE":3.4341,"ARG_OF_PERICENTER":97.3211,"MEAN_ANOMALY":262.8113,"EPHEMERIS_TYPE":0,"CLASSIFICATION_TYPE":"U","NORAD_CAT_ID":49297,"ELEMENT_SET_NO":999,"REV_AT_EPOCH":18766,"BSTAR":-0.000477571,"MEAN_MOTION_DOT":-1.78e-6,"MEAN_MOTION_DDOT":0},{"OBJECT_NAME":"ONEWEB-0372","OBJECT_ID":"2021-090V","EPOCH":"2025-08-27T05:23:59.612064","MEAN_MOTION":13.20771978,"ECCENTRICITY":0.00019051,"INCLINATION":87.929,"RA_OF_ASC_NODE":333.0361,"ARG_OF_PERICENTER":96.5907,"MEAN_ANOMALY":263.5443,"EPHEMERIS_TYPE":0,"CLASSIFICATION_TYPE":"U","NORAD_CAT_ID":49298,"ELEMENT_SET_NO":999,"REV_AT_EPOCH":19103,"BSTAR":0.00032571737,"MEAN_MOTION_DOT":1.45e-6,"MEAN_MOTION_DDOT":0},{"OBJECT_NAME":"ONEWEB-0373","OBJECT_ID":"2021-090W","EPOCH":"2025-08-27T00:35:31.563168","MEAN_MOTION":13.20773426,"ECCENTRICITY":0.00019611,"INCLINATION":87.9295,"RA_OF_ASC_NODE":333.0886,"ARG_OF_PERICENTER":102.0716,"MEAN_ANOMALY":258.0637,"EPHEMERIS_TYPE":0,"CLASSIFICATION_TYPE":"U","NORAD_CAT_ID":49299,"ELEMENT_SET_NO":999,"REV_AT_EPOCH":19219,"BSTAR":0.00020204989,"MEAN_MOTION_DOT":9.5e-7,"MEAN_MOTION_DDOT":0},{"OBJECT_NAME":"ONEWEB-0374","OBJECT_ID":"2021-090X","EPOCH":"2025-08-27T05:28:16.836960","MEAN_MOTION":13.14504291,"ECCENTRICITY":0.00024047,"INCLINATION":87.9088,"RA_OF_ASC_NODE":348.2106,"ARG_OF_PERICENTER":94.5566,"MEAN_ANOMALY":265.5838,"EPHEMERIS_TYPE":0,"CLASSIFICATION_TYPE":"U","NORAD_CAT_ID":49300,"ELEMENT_SET_NO":999,"REV_AT_EPOCH":18894,"BSTAR":0.00071008258,"MEAN_MOTION_DOT":2.76e-6,"MEAN_MOTION_DDOT":0},{"OBJECT_NAME":"ONEWEB-0375","OBJECT_ID":"2021-090Y","EPOCH":"2025-08-27T05:44:38.128416","MEAN_MOTION":13.20773274,"ECCENTRICITY":0.00025308,"INCLINATION":87.9298,"RA_OF_ASC_NODE":333.0251,"ARG_OF_PERICENTER":104.0497,"MEAN_ANOMALY":256.0918,"EPHEMERIS_TYPE":0,"CLASSIFICATION_TYPE":"U","NORAD_CAT_ID":49301,"ELEMENT_SET_NO":999,"REV_AT_EPOCH":19172,"BSTAR":8.021506e-5,"MEAN_MOTION_DOT":4.6e-7,"MEAN_MOTION_DDOT":0},{"OBJECT_NAME":"ONEWEB-0376","OBJECT_ID":"2021-090Z","EPOCH":"2025-08-26T20:49:11.936064","MEAN_MOTION":13.19725875,"ECCENTRICITY":0.00016432,"INCLINATION":87.9273,"RA_OF_ASC_NODE":3.461,"ARG_OF_PERICENTER":91.0643,"MEAN_ANOMALY":269.0678,"EPHEMERIS_TYPE":0,"CLASSIFICATION_TYPE":"U","NORAD_CAT_ID":49302,"ELEMENT_SET_NO":999,"REV_AT_EPOCH":18763,"BSTAR":-5.2864772e-5,"MEAN_MOTION_DOT":-8.0e-8,"MEAN_MOTION_DDOT":0},{"OBJECT_NAME":"ONEWEB-0377","OBJECT_ID":"2021-090AA","EPOCH":"2025-08-26T23:57:07.892928","MEAN_MOTION":13.20770472,"ECCENTRICITY":0.00019505,"INCLINATION":87.9302,"RA_OF_ASC_NODE":333.067,"ARG_OF_PERICENTER":107.1147,"MEAN_ANOMALY":253.02,"EPHEMERIS_TYPE":0,"CLASSIFICATION_TYPE":"U","NORAD_CAT_ID":49303,"ELEMENT_SET_NO":999,"REV_AT_EPOCH":19168,"BSTAR":0.0001250036,"MEAN_MOTION_DOT":6.4e-7,"MEAN_MOTION_DDOT":0},{"OBJECT_NAME":"ONEWEB-0378","OBJECT_ID":"2021-090AB","EPOCH":"2025-08-27T05:56:10.507776","MEAN_MOTION":13.20773472,"ECCENTRICITY":0.00020392,"INCLINATION":87.9311,"RA_OF_ASC_NODE":333.0291,"ARG_OF_PERICENTER":99.5098,"MEAN_ANOMALY":260.6266,"EPHEMERIS_TYPE":0,"CLASSIFICATION_TYPE":"U","NORAD_CAT_ID":49304,"ELEMENT_SET_NO":999,"REV_AT_EPOCH":19098,"BSTAR":0.00013181729,"MEAN_MOTION_DOT":6.7e-7,"MEAN_MOTION_DDOT":0},{"OBJECT_NAME":"ONEWEB-0379","OBJECT_ID":"2021-090AC","EPOCH":"2025-08-27T01:42:12.309984","MEAN_MOTION":13.1450244,"ECCENTRICITY":0.00018721,"INCLINATION":87.9091,"RA_OF_ASC_NODE":348.2485,"ARG_OF_PERICENTER":95.8948,"MEAN_ANOMALY":264.2395,"EPHEMERIS_TYPE":0,"CLASSIFICATION_TYPE":"U","NORAD_CAT_ID":49305,"ELEMENT_SET_NO":999,"REV_AT_EPOCH":18892,"BSTAR":0.00060492157,"MEAN_MOTION_DOT":2.37e-6,"MEAN_MOTION_DDOT":0}]
