ONEWEB-0363             
1 49289U 21090L   25239.22828935  .00000169  00000+0  38332-3 0  9991
2 49289  87.9297 333.0279 0002327 100.7884 259.3512 13.20773288191509
ONEWEB-0364             
1 49290U 21090M   25238.96314375  .00000073  00000+0  14649-3 0  9990
2 49290  87.9288 333.1080 0002041  98.7820 261.3544 13.20772447192607
ONEWEB-0365             
1 49291U 21090N   25239.09335363  .00000041  00000+0  70239-4 0  9999
2 49291  87.9273   3.4135 0001697  95.2413 264.8914 13.19726527187638
ONEWEB-0366             
1 49292U 21090P   25239.24064767  .00000046  00000+0  90944-4 0  9994
2 49292  87.9093 348.2308 0001915 100.4889 259.6457 13.14502322188949
ONEWEB-0367             
1 49293U 21090Q   25239.22671534  .00000147  00000+0  32994-3 0  9991
2 49293  87.9298 333.0236 0001697  99.3994 260.7331 13.20772479191025
ONEWEB-0368             
1 49294U 21090R   25239.19986377 -.00000053  00000+0 -16257-3 0  9994
2 49294  87.9295 333.0650 0002379  81.4980 278.6423 13.20771276192179
ONEWEB-0369             
1 49295U 21090S   25239.08863009  .00000108  00000+0  23807-3 0  9997
2 49295  87.9277   3.4457 0001796  95.1791 264.9547 13.19725657187626
ONEWEB-0370             
1 49296U 21090T   25239.23617858  .00000076  00000+0  15389-3 0  9994
2 49296  87.9300 333.0292 0001702 108.9843 251.1475 13.20772783191066
ONEWEB-0371             
1 49297U 21090U   25239.09650779 -.00000178  00000+0 -47757-3 0  9997
2 49297  87.9276   3.4341 0001687  97.3211 262.8113 13.19725149187665
ONEWEB-0372             
1 49298U 21090V   25239.22499551  .00000145  00000+0  32572-3 0  9993
2 49298  87.9290 333.0361 0001905  96.5907 263.5443 13.20771978191035
ONEWEB-0373             
1 49299U 21090W   25239.02467087  .00000095  00000+0  20205-3 0  9995
2 49299  87.9295 333.0886 0001961 102.0716 258.0637 13.20773426192198
ONEWEB-0374             
1 49300U 21090X   25239.22797265  .00000276  00000+0  71008-3 0  9992
2 49300  87.9088 348.2106 0002404  94.5566 265.5838 13.14504291188944
ONEWEB-0375             
1 49301U 21090Y   25239.23933019  .00000046  00000+0  80215-4 0  9999
2 49301  87.9298 333.0251 0002530 104.0497 256.0918 13.20773274191721
ONEWEB-0376             
1 49302U 21090Z   25238.86749926 -.00000008  00000+0 -52865-4 0  9990
2 49302  87.9273   3.4610 0001643  91.0643 269.0678 13.19725875187638
ONEWEB-0377             
1 49303U 21090AA  25238.99800802  .00000064  00000+0  12500-3 0  9997
2 49303  87.9302 333.0670 0001950 107.1147 253.0200 13.20770472191688
ONEWEB-0378             
1 49304U 21090AB  25239.24734384  .00000067  00000+0  13182-3 0  9998
2 49304  87.9311 333.0291 0002039  99.5098 260.6266 13.20773472190987
ONEWEB-0379             
1 49305U 21090AC  25239.07097581  .00000237  00000+0  60492-3 0  9996
2 49305  87.9091 348.2485 0001872  95.8948 264.2395 13.14502440188925
